H1 CPF 01  gfz 2021 08 16 00  7281 tandemx   
H2 1003001  6202 36605    2021 08 16 00 59 42 2021 08 21 00 00 42   120 1 1  0 0 0
H9
10 0 59444  12942.000000  0    3934523.172   2046536.037  -5279005.719
10 0 59444  13062.000000  0    3393642.335   1522109.437  -5805745.257
10 0 59444  13182.000000  0    2784565.431    981339.464  -6231044.887
10 0 59444  13302.000000  0    2117704.872    434724.132  -6547562.719
10 0 59444  13422.000000  0    1404632.421   -107346.418  -6749844.821
10 0 59444  13542.000000  0     657879.860   -634783.218  -6834410.911
10 0 59444  13662.000000  0    -109279.525  -1137982.221  -6799807.259
10 0 59444  13782.000000  0    -883061.069  -1607993.987  -6646627.478
10 0 59444  13902.000000  0   -1649410.092  -2036678.647  -6377504.464
10 0 59444  14022.000000  0   -2394251.666  -2416844.892  -5997070.011
10 0 59444  14142.000000  0   -3103743.494  -2742369.426  -5511883.210
10 0 59444  14262.000000  0   -3764530.631  -3008297.068  -4930329.622
10 0 59444  14382.000000  0   -4363998.728  -3210919.419  -4262487.811
10 0 59444  14502.000000  0   -4890518.409  -3347828.818  -3519964.814
10 0 59444  14622.000000  0   -5333677.323  -3417947.283  -2715703.103
10 0 59444  14742.000000  0   -5684494.364  -3421529.180  -1863760.043
10 0 59444  14862.000000  0   -5935609.746  -3360136.605   -979063.395
10 0 59444  14982.000000  0   -6081446.561  -3236587.993    -77147.543
10 0 59444  15102.000000  0   -6118339.029  -3054880.440    826124.615
10 0 59444  15222.000000  0   -6044623.885  -2820087.817   1714849.355
10 0 59444  15342.000000  0   -5860689.632  -2538235.902   2573372.396
10 0 59444  15462.000000  0   -5568984.191  -2216158.718   3386572.308
10 0 59444  15582.000000  0   -5173982.326  -1861340.505   4140134.715
10 0 59444  15702.000000  0   -4682109.619  -1481745.059   4820809.021
10 0 59444  15822.000000  0   -4101629.611  -1085639.589   5416640.822
10 0 59444  15942.000000  0   -3442497.731   -681417.214   5917179.907
10 0 59444  16062.000000  0   -2716182.821   -277420.099   6313660.818
10 0 59444  16182.000000  0   -1935459.658    118231.983   6599150.849
10 0 59444  16302.000000  0   -1114178.941    497802.567   6768664.027
10 0 59444  16422.000000  0    -267019.675    854087.900   6819242.730
10 0 59444  16542.000000  0     590773.184   1180552.567   6750005.697
10 0 59444  16662.000000  0    1443662.094   1471449.145   6562162.546
10 0 59444  16782.000000  0    2276097.560   1721919.758   6258993.622
10 0 59444  16902.000000  0    3072800.952   1928077.316   5845796.532
10 0 59444  17022.000000  0    3819047.062   2087066.231   5329799.574
10 0 59444  17142.000000  0    4500939.509   2197101.106   4720040.674
10 0 59444  17262.000000  0    5105674.418   2257483.890   4027216.030
10 0 59444  17382.000000  0    5621791.069   2268598.098   3263497.224
10 0 59444  17502.000000  0    6039397.500   2231878.331   2442315.926
10 0 59444  17622.000000  0    6350367.935   2149758.536   1578127.722
10 0 59444  17742.000000  0    6548509.482   2025598.111    686152.400
10 0 59444  17862.000000  0    6629689.888   1863587.604   -217901.537
10 0 59444  17982.000000  0    6591923.871   1668637.966  -1118123.002
10 0 59444  18102.000000  0    6435415.389   1446254.116  -1998686.148
10 0 59444  18222.000000  0    6162559.023   1202396.819  -2844135.522
10 0 59444  18342.000000  0    5777895.300    943336.843  -3639663.705
10 0 59444  18462.000000  0    5288023.486    675505.566  -4371372.722
10 0 59444  18582.000000  0    4701475.127    405345.512  -5026515.057
10 0 59444  18702.000000  0    4028553.216    139164.434  -5593709.116
10 0 59444  18822.000000  0    3281141.616   -117003.283  -6063127.997
10 0 59444  18942.000000  0    2472487.732   -357525.559  -6426660.009
10 0 59444  19062.000000  0    1616963.414   -577289.815  -6678036.611
10 0 59444  19182.000000  0     729810.847   -771806.240  -6812930.245
10 0 59444  19302.000000  0    -173126.419   -937295.248  -6829021.439
10 0 59444  19422.000000  0   -1075680.425  -1070757.657  -6726033.045
10 0 59444  19542.000000  0   -1961641.165  -1170027.613  -6505735.172
10 0 59444  19662.000000  0   -2815041.629  -1233806.969  -6171917.474
10 0 59444  19782.000000  0   -3620438.668  -1261680.913  -5730330.269
10 0 59444  19902.000000  0   -4363189.962  -1254115.142  -5188597.368
10 0 59444  20022.000000  0   -5029722.592  -1212433.736  -4556095.742
10 0 59444  20142.000000  0   -5607785.982  -1138778.319  -3843804.363
10 0 59444  20262.000000  0   -6086686.135  -1036049.002  -3064123.697
10 0 59444  20382.000000  0   -6457495.311   -907827.861  -2230666.287
10 0 59444  20502.000000  0   -6713230.839   -758286.339  -1358022.065
10 0 59444  20622.000000  0   -6848999.426   -592079.029   -461502.110
10 0 59444  20742.000000  0   -6862101.029   -414224.371    443135.809
10 0 59444  20862.000000  0   -6752088.435   -229976.864   1339970.867
10 0 59444  20982.000000  0   -6520783.134    -44694.635   2213208.068
10 0 59444  21102.000000  0   -6172244.634    136295.365   3047465.689
10 0 59444  21222.000000  0   -5712694.357    307830.947   3828054.561
10 0 59444  21342.000000  0   -5150396.014    465043.317   4541242.301
10 0 59444  21462.000000  0   -4495496.808    603477.173   5174497.132
10 0 59444  21582.000000  0   -3759834.083    719200.109   5716706.544
10 0 59444  21702.000000  0   -2956712.588    808898.515   6158369.321
10 0 59444  21822.000000  0   -2100655.981    869957.434   6491757.413
10 0 59444  21942.000000  0   -1207138.030    900524.284   6711045.795
10 0 59444  22062.000000  0    -292299.206    899554.357   6812407.210
10 0 59444  22182.000000  0     627344.905    866837.185   6794073.961
10 0 59444  22302.000000  0    1535200.557    803003.865   6656366.617
10 0 59444  22422.000000  0    2414894.025    709515.360   6401688.921
10 0 59444  22542.000000  0    3250566.357    588631.498   6034489.175
10 0 59444  22662.000000  0    4027161.410    443361.136   5561187.576
10 0 59444  22782.000000  0    4730700.603    277394.511   4990069.572
10 0 59444  22902.000000  0    5348540.234     95018.010   4331147.096
10 0 59444  23022.000000  0    5869607.638    -98985.953   3595988.383
10 0 59444  23142.000000  0    6284610.318   -299451.400   2797517.261
10 0 59444  23262.000000  0    6586212.063   -500952.250   1949784.574
10 0 59444  23382.000000  0    6769170.309   -697934.769   1067717.577
10 0 59444  23502.000000  0    6830434.634   -884853.917    166851.889
10 0 59444  23622.000000  0    6769202.028  -1056310.832   -736950.891
10 0 59444  23742.000000  0    6586924.544  -1207188.397  -1627792.082
10 0 59444  23862.000000  0    6287272.148  -1332780.556  -2490023.877
10 0 59444  23982.000000  0    5876050.775  -1428912.536  -3308530.573
10 0 59444  24102.000000  0    5361079.383  -1492048.910  -4068996.656
10 0 59444  24222.000000  0    4752029.476  -1519386.460  -4758156.666
10 0 59444  24342.000000  0    4060232.225  -1508930.441  -5364022.583
10 0 59444  24462.000000  0    3298457.194  -1459553.437  -5876085.240
10 0 59444  24582.000000  0    2480668.846  -1371034.764  -6285485.966
10 0 59444  24702.000000  0    1621767.398  -1244079.513  -6585158.795
10 0 59444  24822.000000  0     737316.785  -1080318.065  -6769941.766
10 0 59444  24942.000000  0    -156734.231   -882286.931  -6836656.363
10 0 59444  25062.000000  0   -1044333.999   -653389.848  -6784155.751
10 0 59444  25182.000000  0   -1909609.316   -397840.579  -6613342.704
10 0 59444  25302.000000  0   -2737143.164   -120587.186  -6327154.906
10 0 59444  25422.000000  0   -3512242.811    172779.981  -5930519.272
10 0 59444  25542.000000  0   -4221197.699    476136.377  -5430277.370
10 0 59444  25662.000000  0   -4851523.290    782945.362  -4835077.946
10 0 59444  25782.000000  0   -5392185.676   1086392.445  -4155240.046
10 0 59444  25902.000000  0   -5833804.202   1379531.052  -3402584.735
10 0 59444  26022.000000  0   -6168825.013   1655435.029  -2590237.238
10 0 59444  26142.000000  0   -6391662.484   1907354.686  -1732402.765
10 0 59444  26262.000000  0   -6498804.901   2128873.502   -844119.140
10 0 59444  26382.000000  0   -6488880.168   2314061.094     59010.621
10 0 59444  26502.000000  0   -6362678.328   2457617.993    961099.347
10 0 59444  26622.000000  0   -6123130.308   2555009.410   1846263.242
10 0 59444  26742.000000  0   -5775243.426   2602584.227   2698910.888
10 0 59444  26862.000000  0   -5325994.895   2597675.245   3504026.127
10 0 59444  26982.000000  0   -4784186.544   2538678.087   4247439.702
10 0 59444  27102.000000  0   -4160263.956   2425107.296   4916081.821
10 0 59444  27222.000000  0   -3466107.158   2257628.940   5498211.888
10 0 59444  27342.000000  0   -2714796.994   2038069.392   5983623.040
10 0 59444  27462.000000  0   -1920360.840   1769399.550   6363817.458
10 0 59444  27582.000000  0   -1097504.755   1455694.645   6632149.174
10 0 59444  27702.000000  0    -261338.150   1102071.229   6783932.787
10 0 59444  27822.000000  0     572903.368    714602.690   6816519.553
10 0 59444  27942.000000  0    1390134.656    300214.678   6729340.601
10 0 59444  28062.000000  0    2175692.457   -133437.971   6523916.273
10 0 59444  28182.000000  0    2915597.721   -578111.896   6203832.381
10 0 59444  28302.000000  0    3596805.768  -1025130.768   5774682.220
10 0 59444  28422.000000  0    4207439.859  -1465553.323   5243974.265
10 0 59444  28542.000000  0    4737002.719  -1890351.647   4621006.367
10 0 59444  28662.000000  0    5176563.866  -2290595.364   3916709.074
10 0 59444  28782.000000  0    5518919.569  -2657639.183   3143457.568
10 0 59444  28902.000000  0    5758718.762  -2983309.090   2314853.757
10 0 59444  29022.000000  0    5892552.195  -3260082.382   1445485.142
10 0 59444  29142.000000  0    5919004.811  -3481258.325    550663.580
10 0 59444  29262.000000  0    5838666.747  -3641113.430   -353852.300
10 0 59444  29382.000000  0    5654104.793  -3735038.264  -1252143.155
99
